{
  "norad_id": 67418,
  "name": "STARLINK-36455",
  "history": [
    {
      "epoch": "2026-03-28T19:54:01.660896Z",
      "apogee_km": 483.45363406711385,
      "perigee_km": 482.6286460075553,
      "latitude_deg": 2.7493072158650765e-05,
      "longitude_deg": 5.139190114090225,
      "height_km": 482.4423930324141,
      "semi_major_axis_km": 6861.178140037334,
      "eccentricity": 6.012e-05,
      "inclination_deg": 42.9999,
      "raan_deg": 129.8901,
      "arg_perigee_deg": 24.9727,
      "mean_anomaly_deg": 335.1154,
      "mean_motion_rev_day": 15.27582657
    },
    {
      "epoch": "2026-03-29T03:44:48.253056Z",
      "apogee_km": 483.2215080124588,
      "perigee_km": 482.8194441843589,
      "latitude_deg": 2.261487992998737e-06,
      "longitude_deg": -114.72520587021435,
      "height_km": 482.6822076883951,
      "semi_major_axis_km": 6861.157476098409,
      "eccentricity": 2.93e-05,
      "inclination_deg": 43.0019,
      "raan_deg": 128.0421,
      "arg_perigee_deg": 304.5967,
      "mean_anomaly_deg": 55.4857,
      "mean_motion_rev_day": 15.27589558
    }
  ]
}